[{"OBJECT_NAME":"STARLINK-2478","OBJECT_ID":"2021-027AV","EPOCH":"2026-03-09T15:58:54.796800","MEAN_MOTION":15.29082675,"ECCENTRICITY":0.00032054,"INCLINATION":53.1606,"RA_OF_ASC_NODE":168.0254,"ARG_OF_PERICENTER":139.463,"MEAN_ANOMALY":220.6609,"EPHEMERIS_TYPE":0,"CLASSIFICATION_TYPE":"U","NORAD_CAT_ID":48135,"ELEMENT_SET_NO":999,"REV_AT_EPOCH":27247,"BSTAR":-0.0038835427,"MEAN_MOTION_DOT":-0.00109876,"MEAN_MOTION_DDOT":0},{"OBJECT_NAME":"COSMOS 249 DEB","OBJECT_ID":"1968-091AB","EPOCH":"2026-03-09T20:26:03.278112","MEAN_MOTION":13.65672942,"ECCENTRICITY":0.07422962,"INCLINATION":62.2701,"RA_OF_ASC_NODE":70.4053,"ARG_OF_PERICENTER":111.2229,"MEAN_ANOMALY":256.9701,"EPHEMERIS_TYPE":0,"CLASSIFICATION_TYPE":"U","NORAD_CAT_ID":3609,"ELEMENT_SET_NO":999,"REV_AT_EPOCH":69132,"BSTAR":0.00039134287,"MEAN_MOTION_DOT":2.2e-5,"MEAN_MOTION_DDOT":0}]
